KUIPER-00035            
1 63748U 25088AA  25212.25002315 -.00002447  00000+0 -16749-3 0  9999
2 63748  51.8887  14.5285 0003801  77.6052 182.7573 15.01276799 14691
KUIPER-00037            
1 63749U 25088AB  25212.25002315 -.00814011  00000+0 -62655-1 0  9993
2 63749  51.8893  13.8151 0004315   2.2667 157.5621 15.03862872 15498
KUIPER-00038            
1 63750U 25088AC  25212.25002315 -.00869752  00000+0 -26809-1 0  9998
2 63750  51.8728   7.1612 0004844  73.3914 143.7748 15.35634391 14580
KUIPER-00039            
1 64500U 25134A   25212.08909565  .00034789  00000+0  10121-2 0  9991
2 64500  51.8681 149.6883 0006776 243.7657 116.2633 15.35088029  6565
KUIPER-00040            
1 64501U 25134B   25212.25002315 -.00496151  00000+0 -24857-1 0  9995
2 64501  51.8776 149.8794 0010999 262.5124 147.3202 15.19134803  6576
KUIPER-00041            
1 64502U 25134C   25211.91668981 -.00003384  00000+0 -15686-3 0  9999
2 64502  51.8733 151.7633 0008207 250.5473 303.6847 15.16198294  3634
KUIPER-00042            
1 64503U 25134D   25211.91668981 -.00363950  00000+0 -14058-1 0  9998
2 64503  51.8684 150.8069 0008036 251.8702  91.5608 15.27292038  6535
KUIPER-00043            
1 64504U 25134E   25212.22159721  .00017464  00000+0  51646-3 0  9991
2 64504  51.8691 149.0788 0007744 243.5629 116.4562 15.34976903  6964
