<?xml version="1.0" encoding="UTF-8"?>
<ndm xmlns:xsi="http://www.w3.org/2001/XMLSchema-instance" xsi:noNamespaceSchemaLocation="https://sanaregistry.org/r/ndmxml_unqualified/ndmxml-2.0.0-master-2.0.xsd">
<omm id="CCSDS_OMM_VERS" version="2.0">
<header><CREATION_DATE/><ORIGINATOR/></header><body><segment><metadata><OBJECT_NAME>KUIPER-00035</OBJECT_NAME><OBJECT_ID>2025-088AA</OBJECT_ID><CENTER_NAME>EARTH</CENTER_NAME><REF_FRAME>TEME</REF_FRAME><TIME_SYSTEM>UTC</TIME_SYSTEM><MEAN_ELEMENT_THEORY>SGP4</MEAN_ELEMENT_THEORY></metadata><data><meanElements><EPOCH>2025-07-31T06:00:02.000160</EPOCH><MEAN_MOTION>15.01276799</MEAN_MOTION><ECCENTRICITY>.0003801</ECCENTRICITY><INCLINATION>51.8887</INCLINATION><RA_OF_ASC_NODE>14.5285</RA_OF_ASC_NODE><ARG_OF_PERICENTER>77.6052</ARG_OF_PERICENTER><MEAN_ANOMALY>182.7573</MEAN_ANOMALY></meanElements><tleParameters><EPHEMERIS_TYPE>0</EPHEMERIS_TYPE><CLASSIFICATION_TYPE>U</CLASSIFICATION_TYPE><NORAD_CAT_ID>63748</NORAD_CAT_ID><ELEMENT_SET_NO>999</ELEMENT_SET_NO><REV_AT_EPOCH>1469</REV_AT_EPOCH><BSTAR>-.16749E-3</BSTAR><MEAN_MOTION_DOT>-.2447E-4</MEAN_MOTION_DOT><MEAN_MOTION_DDOT>0</MEAN_MOTION_DDOT></tleParameters></data></segment></body></omm>
<omm id="CCSDS_OMM_VERS" version="2.0">
<header><CREATION_DATE/><ORIGINATOR/></header><body><segment><metadata><OBJECT_NAME>KUIPER-00037</OBJECT_NAME><OBJECT_ID>2025-088AB</OBJECT_ID><CENTER_NAME>EARTH</CENTER_NAME><REF_FRAME>TEME</REF_FRAME><TIME_SYSTEM>UTC</TIME_SYSTEM><MEAN_ELEMENT_THEORY>SGP4</MEAN_ELEMENT_THEORY></metadata><data><meanElements><EPOCH>2025-07-31T06:00:02.000160</EPOCH><MEAN_MOTION>15.03862872</MEAN_MOTION><ECCENTRICITY>.0004315</ECCENTRICITY><INCLINATION>51.8893</INCLINATION><RA_OF_ASC_NODE>13.8151</RA_OF_ASC_NODE><ARG_OF_PERICENTER>2.2667</ARG_OF_PERICENTER><MEAN_ANOMALY>157.5621</MEAN_ANOMALY></meanElements><tleParameters><EPHEMERIS_TYPE>0</EPHEMERIS_TYPE><CLASSIFICATION_TYPE>U</CLASSIFICATION_TYPE><NORAD_CAT_ID>63749</NORAD_CAT_ID><ELEMENT_SET_NO>999</ELEMENT_SET_NO><REV_AT_EPOCH>1549</REV_AT_EPOCH><BSTAR>-.62655E-1</BSTAR><MEAN_MOTION_DOT>-.814011E-2</MEAN_MOTION_DOT><MEAN_MOTION_DDOT>0</MEAN_MOTION_DDOT></tleParameters></data></segment></body></omm>
<omm id="CCSDS_OMM_VERS" version="2.0">
<header><CREATION_DATE/><ORIGINATOR/></header><body><segment><metadata><OBJECT_NAME>KUIPER-00038</OBJECT_NAME><OBJECT_ID>2025-088AC</OBJECT_ID><CENTER_NAME>EARTH</CENTER_NAME><REF_FRAME>TEME</REF_FRAME><TIME_SYSTEM>UTC</TIME_SYSTEM><MEAN_ELEMENT_THEORY>SGP4</MEAN_ELEMENT_THEORY></metadata><data><meanElements><EPOCH>2025-07-31T06:00:02.000160</EPOCH><MEAN_MOTION>15.35634391</MEAN_MOTION><ECCENTRICITY>.0004844</ECCENTRICITY><INCLINATION>51.8728</INCLINATION><RA_OF_ASC_NODE>7.1612</RA_OF_ASC_NODE><ARG_OF_PERICENTER>73.3914</ARG_OF_PERICENTER><MEAN_ANOMALY>143.7748</MEAN_ANOMALY></meanElements><tleParameters><EPHEMERIS_TYPE>0</EPHEMERIS_TYPE><CLASSIFICATION_TYPE>U</CLASSIFICATION_TYPE><NORAD_CAT_ID>63750</NORAD_CAT_ID><ELEMENT_SET_NO>999</ELEMENT_SET_NO><REV_AT_EPOCH>1458</REV_AT_EPOCH><BSTAR>-.26809E-1</BSTAR><MEAN_MOTION_DOT>-.869752E-2</MEAN_MOTION_DOT><MEAN_MOTION_DDOT>0</MEAN_MOTION_DDOT></tleParameters></data></segment></body></omm>
<omm id="CCSDS_OMM_VERS" version="2.0">
<header><CREATION_DATE/><ORIGINATOR/></header><body><segment><metadata><OBJECT_NAME>KUIPER-00039</OBJECT_NAME><OBJECT_ID>2025-134A</OBJECT_ID><CENTER_NAME>EARTH</CENTER_NAME><REF_FRAME>TEME</REF_FRAME><TIME_SYSTEM>UTC</TIME_SYSTEM><MEAN_ELEMENT_THEORY>SGP4</MEAN_ELEMENT_THEORY></metadata><data><meanElements><EPOCH>2025-07-31T02:08:17.864160</EPOCH><MEAN_MOTION>15.35088029</MEAN_MOTION><ECCENTRICITY>.0006776</ECCENTRICITY><INCLINATION>51.8681</INCLINATION><RA_OF_ASC_NODE>149.6883</RA_OF_ASC_NODE><ARG_OF_PERICENTER>243.7657</ARG_OF_PERICENTER><MEAN_ANOMALY>116.2633</MEAN_ANOMALY></meanElements><tleParameters><EPHEMERIS_TYPE>0</EPHEMERIS_TYPE><CLASSIFICATION_TYPE>U</CLASSIFICATION_TYPE><NORAD_CAT_ID>64500</NORAD_CAT_ID><ELEMENT_SET_NO>999</ELEMENT_SET_NO><REV_AT_EPOCH>656</REV_AT_EPOCH><BSTAR>.10121E-2</BSTAR><MEAN_MOTION_DOT>.34789E-3</MEAN_MOTION_DOT><MEAN_MOTION_DDOT>0</MEAN_MOTION_DDOT></tleParameters></data></segment></body></omm>
<omm id="CCSDS_OMM_VERS" version="2.0">
<header><CREATION_DATE/><ORIGINATOR/></header><body><segment><metadata><OBJECT_NAME>KUIPER-00040</OBJECT_NAME><OBJECT_ID>2025-134B</OBJECT_ID><CENTER_NAME>EARTH</CENTER_NAME><REF_FRAME>TEME</REF_FRAME><TIME_SYSTEM>UTC</TIME_SYSTEM><MEAN_ELEMENT_THEORY>SGP4</MEAN_ELEMENT_THEORY></metadata><data><meanElements><EPOCH>2025-07-31T06:00:02.000160</EPOCH><MEAN_MOTION>15.19134803</MEAN_MOTION><ECCENTRICITY>.0010999</ECCENTRICITY><INCLINATION>51.8776</INCLINATION><RA_OF_ASC_NODE>149.8794</RA_OF_ASC_NODE><ARG_OF_PERICENTER>262.5124</ARG_OF_PERICENTER><MEAN_ANOMALY>147.3202</MEAN_ANOMALY></meanElements><tleParameters><EPHEMERIS_TYPE>0</EPHEMERIS_TYPE><CLASSIFICATION_TYPE>U</CLASSIFICATION_TYPE><NORAD_CAT_ID>64501</NORAD_CAT_ID><ELEMENT_SET_NO>999</ELEMENT_SET_NO><REV_AT_EPOCH>657</REV_AT_EPOCH><BSTAR>-.24857E-1</BSTAR><MEAN_MOTION_DOT>-.496151E-2</MEAN_MOTION_DOT><MEAN_MOTION_DDOT>0</MEAN_MOTION_DDOT></tleParameters></data></segment></body></omm>
<omm id="CCSDS_OMM_VERS" version="2.0">
<header><CREATION_DATE/><ORIGINATOR/></header><body><segment><metadata><OBJECT_NAME>KUIPER-00041</OBJECT_NAME><OBJECT_ID>2025-134C</OBJECT_ID><CENTER_NAME>EARTH</CENTER_NAME><REF_FRAME>TEME</REF_FRAME><TIME_SYSTEM>UTC</TIME_SYSTEM><MEAN_ELEMENT_THEORY>SGP4</MEAN_ELEMENT_THEORY></metadata><data><meanElements><EPOCH>2025-07-30T22:00:01.999584</EPOCH><MEAN_MOTION>15.16198294</MEAN_MOTION><ECCENTRICITY>.0008207</ECCENTRICITY><INCLINATION>51.8733</INCLINATION><RA_OF_ASC_NODE>151.7633</RA_OF_ASC_NODE><ARG_OF_PERICENTER>250.5473</ARG_OF_PERICENTER><MEAN_ANOMALY>303.6847</MEAN_ANOMALY></meanElements><tleParameters><EPHEMERIS_TYPE>0</EPHEMERIS_TYPE><CLASSIFICATION_TYPE>U</CLASSIFICATION_TYPE><NORAD_CAT_ID>64502</NORAD_CAT_ID><ELEMENT_SET_NO>999</ELEMENT_SET_NO><REV_AT_EPOCH>363</REV_AT_EPOCH><BSTAR>-.15686E-3</BSTAR><MEAN_MOTION_DOT>-.3384E-4</MEAN_MOTION_DOT><MEAN_MOTION_DDOT>0</MEAN_MOTION_DDOT></tleParameters></data></segment></body></omm>
<omm id="CCSDS_OMM_VERS" version="2.0">
<header><CREATION_DATE/><ORIGINATOR/></header><body><segment><metadata><OBJECT_NAME>KUIPER-00042</OBJECT_NAME><OBJECT_ID>2025-134D</OBJECT_ID><CENTER_NAME>EARTH</CENTER_NAME><REF_FRAME>TEME</REF_FRAME><TIME_SYSTEM>UTC</TIME_SYSTEM><MEAN_ELEMENT_THEORY>SGP4</MEAN_ELEMENT_THEORY></metadata><data><meanElements><EPOCH>2025-07-30T22:00:01.999584</EPOCH><MEAN_MOTION>15.27292038</MEAN_MOTION><ECCENTRICITY>.0008036</ECCENTRICITY><INCLINATION>51.8684</INCLINATION><RA_OF_ASC_NODE>150.8069</RA_OF_ASC_NODE><ARG_OF_PERICENTER>251.8702</ARG_OF_PERICENTER><MEAN_ANOMALY>91.5608</MEAN_ANOMALY></meanElements><tleParameters><EPHEMERIS_TYPE>0</EPHEMERIS_TYPE><CLASSIFICATION_TYPE>U</CLASSIFICATION_TYPE><NORAD_CAT_ID>64503</NORAD_CAT_ID><ELEMENT_SET_NO>999</ELEMENT_SET_NO><REV_AT_EPOCH>653</REV_AT_EPOCH><BSTAR>-.14058E-1</BSTAR><MEAN_MOTION_DOT>-.36395E-2</MEAN_MOTION_DOT><MEAN_MOTION_DDOT>0</MEAN_MOTION_DDOT></tleParameters></data></segment></body></omm>
<omm id="CCSDS_OMM_VERS" version="2.0">
<header><CREATION_DATE/><ORIGINATOR/></header><body><segment><metadata><OBJECT_NAME>KUIPER-00043</OBJECT_NAME><OBJECT_ID>2025-134E</OBJECT_ID><CENTER_NAME>EARTH</CENTER_NAME><REF_FRAME>TEME</REF_FRAME><TIME_SYSTEM>UTC</TIME_SYSTEM><MEAN_ELEMENT_THEORY>SGP4</MEAN_ELEMENT_THEORY></metadata><data><meanElements><EPOCH>2025-07-31T05:19:05.998944</EPOCH><MEAN_MOTION>15.34976903</MEAN_MOTION><ECCENTRICITY>.0007744</ECCENTRICITY><INCLINATION>51.8691</INCLINATION><RA_OF_ASC_NODE>149.0788</RA_OF_ASC_NODE><ARG_OF_PERICENTER>243.5629</ARG_OF_PERICENTER><MEAN_ANOMALY>116.4562</MEAN_ANOMALY></meanElements><tleParameters><EPHEMERIS_TYPE>0</EPHEMERIS_TYPE><CLASSIFICATION_TYPE>U</CLASSIFICATION_TYPE><NORAD_CAT_ID>64504</NORAD_CAT_ID><ELEMENT_SET_NO>999</ELEMENT_SET_NO><REV_AT_EPOCH>696</REV_AT_EPOCH><BSTAR>.51646E-3</BSTAR><MEAN_MOTION_DOT>.17464E-3</MEAN_MOTION_DOT><MEAN_MOTION_DDOT>0</MEAN_MOTION_DDOT></tleParameters></data></segment></body></omm>

</ndm>
